[{"OBJECT_NAME":"HULIANWANG DIGUI-64","OBJECT_ID":"2025-174G","EPOCH":"2026-03-09T23:10:48.024768","MEAN_MOTION":13.24422165,"ECCENTRICITY":0.00012524,"INCLINATION":86.4872,"RA_OF_ASC_NODE":285.482,"ARG_OF_PERICENTER":95.7947,"MEAN_ANOMALY":264.333,"EPHEMERIS_TYPE":0,"CLASSIFICATION_TYPE":"U","NORAD_CAT_ID":65170,"ELEMENT_SET_NO":999,"REV_AT_EPOCH":2765,"BSTAR":3.459576e-5,"MEAN_MOTION_DOT":3.0e-7,"MEAN_MOTION_DDOT":0},{"OBJECT_NAME":"COSMOS 2251 DEB","OBJECT_ID":"1993-036BXS","EPOCH":"2026-03-05T10:32:54.754368","MEAN_MOTION":13.72200584,"ECCENTRICITY":0.0322895,"INCLINATION":74.0821,"RA_OF_ASC_NODE":301.7772,"ARG_OF_PERICENTER":48.2079,"MEAN_ANOMALY":129.1317,"EPHEMERIS_TYPE":0,"CLASSIFICATION_TYPE":"U","NORAD_CAT_ID":47062,"ELEMENT_SET_NO":999,"REV_AT_EPOCH":56736,"BSTAR":0.002142,"MEAN_MOTION_DOT":2.813e-5,"MEAN_MOTION_DDOT":0}]
